CCSDS_OMM_VERS = 2.0
CREATION_DATE  = 
ORIGINATOR     = 

OBJECT_NAME    = ISS OBJECT XW
OBJECT_ID      = 1998-067XW
CENTER_NAME    = EARTH
REF_FRAME      = TEME
TIME_SYSTEM    = UTC
MEAN_ELEMENT_THEORY = SGP/SGP4

EPOCH          = 2026-02-24T08:57:39.783168
MEAN_MOTION    = 15.64964453
ECCENTRICITY   = .0004119
INCLINATION    = 51.6246
RA_OF_ASC_NODE = 133.2264
ARG_OF_PERICENTER = 19.7991
MEAN_ANOMALY   = 340.3164

EPHEMERIS_TYPE = 0
CLASSIFICATION_TYPE = U
NORAD_CAT_ID   = 66910
ELEMENT_SET_NO = 999
REV_AT_EPOCH   = 1309
BSTAR          = .10454E-2
MEAN_MOTION_DOT = .105426E-2
MEAN_MOTION_DDOT = 0

CCSDS_OMM_VERS = 2.0
CREATION_DATE  = 
ORIGINATOR     = 

OBJECT_NAME    = ISS OBJECT XX
OBJECT_ID      = 1998-067XX
CENTER_NAME    = EARTH
REF_FRAME      = TEME
TIME_SYSTEM    = UTC
MEAN_ELEMENT_THEORY = SGP/SGP4

EPOCH          = 2026-02-24T10:06:14.569344
MEAN_MOTION    = 15.69328988
ECCENTRICITY   = .0006169
INCLINATION    = 51.6222
RA_OF_ASC_NODE = 132.0369
ARG_OF_PERICENTER = 12.7164
MEAN_ANOMALY   = 347.3988

EPHEMERIS_TYPE = 0
CLASSIFICATION_TYPE = U
NORAD_CAT_ID   = 66911
ELEMENT_SET_NO = 999
REV_AT_EPOCH   = 1310
BSTAR          = .1367E-2
MEAN_MOTION_DOT = .166127E-2
MEAN_MOTION_DDOT = 0

CCSDS_OMM_VERS = 2.0
CREATION_DATE  = 
ORIGINATOR     = 

OBJECT_NAME    = ISS OBJECT XY
OBJECT_ID      = 1998-067XY
CENTER_NAME    = EARTH
REF_FRAME      = TEME
TIME_SYSTEM    = UTC
MEAN_ELEMENT_THEORY = SGP/SGP4

EPOCH          = 2026-02-24T11:15:35.295264
MEAN_MOTION    = 15.61203953
ECCENTRICITY   = .0002128
INCLINATION    = 51.6273
RA_OF_ASC_NODE = 133.8770
ARG_OF_PERICENTER = 25.6563
MEAN_ANOMALY   = 334.4536

EPHEMERIS_TYPE = 0
CLASSIFICATION_TYPE = U
NORAD_CAT_ID   = 66912
ELEMENT_SET_NO = 999
REV_AT_EPOCH   = 1308
BSTAR          = .85008E-3
MEAN_MOTION_DOT = .73537E-3
MEAN_MOTION_DDOT = 0

CCSDS_OMM_VERS = 2.0
CREATION_DATE  = 
ORIGINATOR     = 

OBJECT_NAME    = ISS OBJECT XZ
OBJECT_ID      = 1998-067XZ
CENTER_NAME    = EARTH
REF_FRAME      = TEME
TIME_SYSTEM    = UTC
MEAN_ELEMENT_THEORY = SGP/SGP4

EPOCH          = 2026-02-24T10:57:39.433824
MEAN_MOTION    = 15.50689363
ECCENTRICITY   = .0009936
INCLINATION    = 51.6306
RA_OF_ASC_NODE = 137.5433
ARG_OF_PERICENTER = 141.9387
MEAN_ANOMALY   = 218.2305

EPHEMERIS_TYPE = 0
CLASSIFICATION_TYPE = U
NORAD_CAT_ID   = 67683
ELEMENT_SET_NO = 999
REV_AT_EPOCH   = 273
BSTAR          = .58683E-3
MEAN_MOTION_DOT = .34066E-3
MEAN_MOTION_DDOT = 0

CCSDS_OMM_VERS = 2.0
CREATION_DATE  = 
ORIGINATOR     = 

OBJECT_NAME    = GXIBA-1
OBJECT_ID      = 1998-067YA
CENTER_NAME    = EARTH
REF_FRAME      = TEME
TIME_SYSTEM    = UTC
MEAN_ELEMENT_THEORY = SGP/SGP4

EPOCH          = 2026-02-24T12:14:55.458240
MEAN_MOTION    = 15.52162735
ECCENTRICITY   = .0011406
INCLINATION    = 51.6305
RA_OF_ASC_NODE = 137.1526
ARG_OF_PERICENTER = 133.9104
MEAN_ANOMALY   = 226.2829

EPHEMERIS_TYPE = 0
CLASSIFICATION_TYPE = U
NORAD_CAT_ID   = 67684
ELEMENT_SET_NO = 999
REV_AT_EPOCH   = 274
BSTAR          = .10731E-2
MEAN_MOTION_DOT = .66405E-3
MEAN_MOTION_DDOT = 0

CCSDS_OMM_VERS = 2.0
CREATION_DATE  = 
ORIGINATOR     = 

OBJECT_NAME    = CORAL
OBJECT_ID      = 1998-067YB
CENTER_NAME    = EARTH
REF_FRAME      = TEME
TIME_SYSTEM    = UTC
MEAN_ELEMENT_THEORY = SGP/SGP4

EPOCH          = 2026-02-24T12:27:40.495680
MEAN_MOTION    = 15.50934033
ECCENTRICITY   = .0011827
INCLINATION    = 51.6307
RA_OF_ASC_NODE = 137.2112
ARG_OF_PERICENTER = 138.3350
MEAN_ANOMALY   = 221.8542

EPHEMERIS_TYPE = 0
CLASSIFICATION_TYPE = U
NORAD_CAT_ID   = 67685
ELEMENT_SET_NO = 999
REV_AT_EPOCH   = 274
BSTAR          = .68366E-3
MEAN_MOTION_DOT = .40179E-3
MEAN_MOTION_DDOT = 0

CCSDS_OMM_VERS = 2.0
CREATION_DATE  = 
ORIGINATOR     = 

OBJECT_NAME    = ISS OBJECT YC
OBJECT_ID      = 1998-067YC
CENTER_NAME    = EARTH
REF_FRAME      = TEME
TIME_SYSTEM    = UTC
MEAN_ELEMENT_THEORY = SGP/SGP4

EPOCH          = 2026-02-24T12:24:41.758272
MEAN_MOTION    = 15.51233940
ECCENTRICITY   = .000773
INCLINATION    = 51.6312
RA_OF_ASC_NODE = 137.1991
ARG_OF_PERICENTER = 108.4650
MEAN_ANOMALY   = 251.7180

EPHEMERIS_TYPE = 0
CLASSIFICATION_TYPE = U
NORAD_CAT_ID   = 67686
ELEMENT_SET_NO = 999
REV_AT_EPOCH   = 274
BSTAR          = .76511E-3
MEAN_MOTION_DOT = .45468E-3
MEAN_MOTION_DDOT = 0

CCSDS_OMM_VERS = 2.0
CREATION_DATE  = 
ORIGINATOR     = 

OBJECT_NAME    = LEOPARD
OBJECT_ID      = 1998-067YD
CENTER_NAME    = EARTH
REF_FRAME      = TEME
TIME_SYSTEM    = UTC
MEAN_ELEMENT_THEORY = SGP/SGP4

EPOCH          = 2026-02-24T12:28:50.539296
MEAN_MOTION    = 15.50821700
ECCENTRICITY   = .0007766
INCLINATION    = 51.6309
RA_OF_ASC_NODE = 137.2174
ARG_OF_PERICENTER = 111.6746
MEAN_ANOMALY   = 248.5071

EPHEMERIS_TYPE = 0
CLASSIFICATION_TYPE = U
NORAD_CAT_ID   = 67687
ELEMENT_SET_NO = 999
REV_AT_EPOCH   = 266
BSTAR          = .57852E-3
MEAN_MOTION_DOT = .33711E-3
MEAN_MOTION_DDOT = 0

CCSDS_OMM_VERS = 2.0
CREATION_DATE  = 
ORIGINATOR     = 

OBJECT_NAME    = ISS OBJECT YE
OBJECT_ID      = 1998-067YE
CENTER_NAME    = EARTH
REF_FRAME      = TEME
TIME_SYSTEM    = UTC
MEAN_ELEMENT_THEORY = SGP/SGP4

EPOCH          = 2026-02-24T12:25:57.531936
MEAN_MOTION    = 15.51094294
ECCENTRICITY   = .0007633
INCLINATION    = 51.6313
RA_OF_ASC_NODE = 137.2046
ARG_OF_PERICENTER = 108.8035
MEAN_ANOMALY   = 251.3783

EPHEMERIS_TYPE = 0
CLASSIFICATION_TYPE = U
NORAD_CAT_ID   = 67688
ELEMENT_SET_NO = 999
REV_AT_EPOCH   = 266
BSTAR          = .71566E-3
MEAN_MOTION_DOT = .42268E-3
MEAN_MOTION_DDOT = 0

CCSDS_OMM_VERS = 2.0
CREATION_DATE  = 
ORIGINATOR     = 

OBJECT_NAME    = CREW DRAGON 12
OBJECT_ID      = 2026-031A
CENTER_NAME    = EARTH
REF_FRAME      = TEME
TIME_SYSTEM    = UTC
MEAN_ELEMENT_THEORY = SGP/SGP4

EPOCH          = 2026-02-24T05:14:04.047360
MEAN_MOTION    = 15.48257925
ECCENTRICITY   = .00084272
INCLINATION    = 51.6318
RA_OF_ASC_NODE = 138.9491
ARG_OF_PERICENTER = 128.0072
MEAN_ANOMALY   = 232.1679

EPHEMERIS_TYPE = 0
CLASSIFICATION_TYPE = U
NORAD_CAT_ID   = 67796
ELEMENT_SET_NO = 999
REV_AT_EPOCH   = 55421
BSTAR          = .22801862E-3
MEAN_MOTION_DOT = .11823E-3
MEAN_MOTION_DDOT = 0

